NORAD_CAT_ID,OBJECT_NAME,OBJECT_TYPE,EPOCH,MEAN_MOTION,ECCENTRICITY,INCLINATION,RA_OF_ASC_NODE,ARG_OF_PERICENTER,MEAN_ANOMALY,BSTAR,MEAN_MOTION_DOT,MEAN_MOTION_DDOT,TLE_LINE0,TLE_LINE1,TLE_LINE2,SEMIMAJOR_AXIS,PERIOD,APOGEE,PERIGEE,DECAYED
56468.0,STARLINK-5998,PAYLOAD,2024-02-11 22:03:30,14.98332778,0.0002966,69.9983,252.3598,271.0273,89.0546,1.2931e-05,6.1e-07,0.0,0 STARLINK-5998,1 56468U 23064W   24042.91909992  .00000061  00000-0  12931-4 0  9991,2 56468  69.9983 252.3598 0002966 271.0273  89.0546 14.98332778 41890,6950.184,96.107,574.111,569.988,0.0
56468.0,STARLINK-5998,PAYLOAD,2024-02-12 14:04:51,14.98328156,0.0003006,69.9984,250.6758,272.5076,87.5739,3.5484e-06,-5.1e-07,0.0,0 STARLINK-5998,1 56468U 23064W   24043.58670250 -.00000051  00000-0  35484-5 0  9996,2 56468  69.9984 250.6758 0003006 272.5076  87.5739 14.98328156 41996,6950.199,96.107,574.153,569.974,0.0
56468.0,STARLINK-5998,PAYLOAD,2024-02-12 18:53:15,14.98329153,0.0002987,69.9986,250.1706,272.6073,87.4744,1.6602e-05,1.05e-06,0.0,0 STARLINK-5998,1 56468U 23064W   24043.78698155  .00000105  00000-0  16602-4 0  9991,2 56468  69.9986 250.1706 0002987 272.6073  87.4744 14.98329153 42388,6950.196,96.107,574.137,569.984,0.0
56468.0,STARLINK-5998,PAYLOAD,2024-02-12 22:05:31,14.98328807,0.0003001,69.9986,249.834,272.8459,87.2357,1.0308e-05,3e-07,0.0,0 STARLINK-5998,1 56468U 23064W   24043.92050194  .00000030  00000-0  10308-4 0  9996,2 56468  69.9986 249.8340 0003001 272.8459  87.2357 14.98328807 42041,6950.197,96.107,574.147,569.976,0.0
56468.0,STARLINK-5998,PAYLOAD,2024-02-13 14:06:51,14.98330705,0.0002896,69.9991,248.1508,272.3154,87.7674,-2.2987e-05,-3.67e-06,0.0,0 STARLINK-5998,1 56468U 23064W   24044.58810172 -.00000367  00000-0 -22987-4 0  9990,2 56468  69.9991 248.1508 0002896 272.3154  87.7674 14.98330705 42141,6950.191,96.107,574.068,570.043,0.0
56468.0,STARLINK-5998,PAYLOAD,2024-02-13 20:31:24,14.98330591,0.0002901,69.999,247.4774,271.5442,88.5384,-2.5619e-05,-3.99e-06,0.0,0 STARLINK-5998,1 56468U 23064W   24044.85514165 -.00000399  00000-0 -25619-4 0  9993,2 56468  69.9990 247.4774 0002901 271.5442  88.5384 14.98330591 42549,6950.191,96.107,574.072,570.04,0.0
56468.0,STARLINK-5998,PAYLOAD,2024-02-13 22:07:32,14.98330122,0.000292,69.999,247.3091,271.5767,88.5057,-3.1664e-05,-4.71e-06,0.0,0 STARLINK-5998,1 56468U 23064W   24044.92190209 -.00000471  00000-0 -31664-4 0  9998,2 56468  69.9990 247.3091 0002920 271.5767  88.5057 14.98330122 42199,6950.193,96.107,574.087,570.028,0.0
56468.0,STARLINK-5998,PAYLOAD,2024-02-14 14:08:52,14.98331016,0.0002965,69.9988,245.626,270.2692,89.8127,2.2433e-05,1.75e-06,0.0,0 STARLINK-5998,1 56468U 23064W   24045.58949936  .00000175  00000-0  22433-4 0  9993,2 56468  69.9988 245.6260 0002965 270.2692  89.8127 14.98331016 42293,6950.19,96.107,574.115,569.994,0.0
56468.0,STARLINK-5998,PAYLOAD,2024-02-14 22:09:32,14.98332213,0.000295,69.9989,244.7844,270.4005,89.6816,3.5714e-05,3.33e-06,0.0,0 STARLINK-5998,1 56468U 23064W   24045.92329789  .00000333  00000-0  35714-4 0  9991,2 56468  69.9989 244.7844 0002950 270.4005  89.6816 14.98332213 42345,6950.186,96.107,574.101,570.001,0.0
56468.0,STARLINK-5998,PAYLOAD,2024-02-14 23:45:40,14.98332448,0.0002948,69.9989,244.616,270.3848,89.6974,3.7761e-05,3.58e-06,0.0,0 STARLINK-5998,1 56468U 23064W   24045.99005758  .00000358  00000-0  37761-4 0  9996,2 56468  69.9989 244.6160 0002948 270.3848  89.6974 14.98332448 42712,6950.185,96.107,574.099,570.001,0.0
56468.0,STARLINK-5998,PAYLOAD,2024-02-15 14:10:53,14.98330497,0.0002933,69.999,243.1013,268.8988,91.1835,1.6678e-05,1.06e-06,0.0,0 STARLINK-5998,1 56468U 23064W   24046.59089859  .00000106  00000-0  16678-4 0  9992,2 56468  69.9990 243.1013 0002933 268.8988  91.1835 14.98330497 42442,6950.191,96.107,574.095,570.018,0.0
56468.0,STARLINK-5998,PAYLOAD,2024-02-15 22:11:33,14.98330529,0.0002939,69.9991,242.2597,268.9329,91.1493,1.5128e-05,8.8e-07,0.0,0 STARLINK-5998,1 56468U 23064W   24046.92469834  .00000088  00000-0  15128-4 0  9992,2 56468  69.9991 242.2597 0002939 268.9329  91.1493 14.98330529 42497,6950.191,96.107,574.099,570.014,0.0
56468.0,STARLINK-5998,PAYLOAD,2024-02-16 06:12:14,14.98329131,0.0002938,69.9991,241.418,269.7182,90.364,-6.222e-06,-1.67e-06,0.0,0 STARLINK-5998,1 56468U 23064W   24047.25849965 -.00000167  00000-0 -62220-5 0  9992,2 56468  69.9991 241.4180 0002938 269.7182  90.3640 14.98329131 42909,6950.196,96.107,574.103,570.019,0.0
56468.0,STARLINK-5998,PAYLOAD,2024-02-16 14:12:54,14.98329387,0.0002901,69.9992,240.5763,269.4499,90.6327,-2.9926e-05,-4.5e-06,0.0,0 STARLINK-5998,1 56468U 23064W   24047.59230011 -.00000450  00000-0 -29926-4 0  9995,2 56468  69.9992 240.5763 0002901 269.4499  90.6327 14.98329387 42598,6950.195,96.107,574.076,570.044,0.0
56468.0,STARLINK-5998,PAYLOAD,2024-02-16 22:13:35,14.98329262,0.0002926,69.9992,239.7347,269.5239,90.5585,-4.0256e-05,-5.73e-06,0.0,0 STARLINK-5998,1 56468U 23064W   24047.92610046 -.00000573  00000-0 -40256-4 0  9997,2 56468  69.9992 239.7347 0002926 269.5239  90.5585 14.98329262 42649,6950.195,96.107,574.094,570.027,0.0
56468.0,STARLINK-5998,PAYLOAD,2024-02-17 06:14:15,14.98328833,0.0002932,69.9992,238.8922,270.4922,89.5901,-3.6737e-05,-5.31e-06,0.0,0 STARLINK-5998,1 56468U 23064W   24048.25990079 -.00000531  00000-0 -36737-4 0  9994,2 56468  69.9992 238.8922 0002932 270.4922  89.5901 14.98328833 43054,6950.196,96.107,574.099,570.024,0.0
56468.0,STARLINK-5998,PAYLOAD,2024-02-17 14:14:55,14.98327986,0.0002955,69.9991,238.0505,270.1639,89.9182,-1.4233e-05,-2.63e-06,0.0,0 STARLINK-5998,1 56468U 23064W   24048.59370077 -.00000263  00000-0 -14233-4 0  9990,2 56468  69.9991 238.0505 0002955 270.1639  89.9182 14.98327986 42747,6950.199,96.107,574.118,570.01,0.0
56468.0,STARLINK-5998,PAYLOAD,2024-02-17 22:15:36,14.98327893,0.0002978,69.9992,237.2091,270.4591,89.6226,-1.687e-05,-2.94e-06,0.0,0 STARLINK-5998,1 56468U 23064W   24048.92750132 -.00000294  00000-0 -16870-4 0  9994,2 56468  69.9992 237.2091 0002978 270.4591  89.6226 14.98327893 42792,6950.199,96.107,574.134,569.995,0.0
56468.0,STARLINK-5998,PAYLOAD,2024-02-18 11:04:40,14.98330636,0.0003014,69.9992,235.8624,270.3761,89.7053,5.2717e-05,5.36e-06,0.0,0 STARLINK-5998,1 56468U 23064W   24049.46157773  .00000536  00000-0  52717-4 0  9993,2 56468  69.9992 235.8624 0003014 270.3761  89.7053 14.98330636 43236,6950.191,96.107,574.151,569.961,0.0
56468.0,STARLINK-5998,PAYLOAD,2024-02-18 14:16:56,14.9833106,0.0003022,69.9991,235.5257,270.4489,89.6324,5.5421e-05,5.68e-06,0.0,0 STARLINK-5998,1 56468U 23064W   24049.59509721  .00000568  00000-0  55421-4 0  9991,2 56468  69.9991 235.5257 0003022 270.4489  89.6324 14.98331060 42894,6950.19,96.107,574.155,569.954,0.0
56468.0,STARLINK-5998,PAYLOAD,2024-02-18 22:17:36,14.98333254,0.0003053,69.9989,234.6844,270.9372,89.1438,6.146e-05,6.4e-06,0.0,0 STARLINK-5998,1 56468U 23064W   24049.92889521  .00000640  00000-0  61460-4 0  9998,2 56468  69.9989 234.6844 0003053 270.9372  89.1438 14.98333254 42947,6950.183,96.107,574.17,569.926,0.0
56468.0,STARLINK-5998,PAYLOAD,2024-02-19 11:06:41,14.9832935,0.0003031,69.9989,233.3378,270.973,89.1081,2.963e-05,2.61e-06,0.0,0 STARLINK-5998,1 56468U 23064W   24050.46297801  .00000261  00000-0  29630-4 0  9995,2 56468  69.9989 233.3378 0003031 270.9730  89.1081 14.98329350 43384,6950.195,96.107,574.167,569.953,0.0
56468.0,STARLINK-5998,PAYLOAD,2024-02-19 14:18:57,14.98329351,0.0003033,69.9989,233.0011,270.9351,89.1461,2.812e-05,2.43e-06,0.0,0 STARLINK-5998,1 56468U 23064W   24050.59649797  .00000243  00000-0  28120-4 0  9997,2 56468  69.9989 233.0011 0003033 270.9351  89.1461 14.98329351 43042,6950.195,96.107,574.168,569.952,0.0
56468.0,STARLINK-5998,PAYLOAD,2024-02-19 22:19:37,14.98330881,0.0003037,69.999,232.1595,271.0601,89.021,3.0924e-05,2.76e-06,0.0,0 STARLINK-5998,1 56468U 23064W   24050.93029670  .00000276  00000-0  30924-4 0  9998,2 56468  69.9990 232.1595 0003037 271.0601  89.0210 14.98330881 43091,6950.19,96.107,574.166,569.944,0.0
56468.0,STARLINK-5998,PAYLOAD,2024-02-20 11:08:43,14.98319327,0.0002763,70.0005,230.8143,269.9648,90.1194,-0.00012391,-1.571e-05,0.0,0 STARLINK-5998,1 56468U 23064W   24051.46439148 -.00001571  00000-0 -12391-3 0  9990,2 56468  70.0005 230.8143 0002763 269.9648  90.1194 14.98319327 43532,6950.226,96.108,574.011,570.171,0.0
56468.0,STARLINK-5998,PAYLOAD,2024-02-20 14:20:59,14.98317414,0.000275,70.0005,230.4774,270.1647,89.9197,-0.00016436,-2.053e-05,0.0,0 STARLINK-5998,1 56468U 23064W   24051.59791473 -.00002053  00000-0 -16436-3 0  9996,2 56468  70.0005 230.4774 0002750 270.1647  89.9197 14.98317414 43193,6950.232,96.108,574.008,570.185,0.0
56468.0,STARLINK-5998,PAYLOAD,2024-02-20 19:09:24,14.98311738,0.0002634,70.0004,229.9726,265.4735,94.6123,-0.00018241,-2.268e-05,0.0,0 STARLINK-5998,1 56468U 23064W   24051.79820052 -.00002268  00000-0 -18241-3 0  9998,2 56468  70.0004 229.9726 0002634 265.4735  94.6123 14.98311738 43586,6950.249,96.108,573.945,570.284,0.0
56468.0,STARLINK-5998,PAYLOAD,2024-02-20 20:45:32,14.98309984,0.0002677,70.0,229.804,266.5434,93.5419,-0.00020384,-2.523e-05,0.0,0 STARLINK-5998,1 56468U 23064W   24051.86496300 -.00002523  00000-0 -20384-3 0  9996,2 56468  70.0000 229.8040 0002677 266.5434  93.5419 14.98309984 43233,6950.255,96.108,573.98,570.259,0.0
56468.0,STARLINK-5998,PAYLOAD,2024-02-21 04:46:12,14.98318228,0.0002878,69.9997,228.9629,263.8352,96.2479,-0.00011104,-1.417e-05,0.0,0 STARLINK-5998,1 56468U 23064W   24052.19875740 -.00001417  00000-0 -11104-3 0  9993,2 56468  69.9997 228.9629 0002878 263.8352  96.2479 14.98318228 43642,6950.229,96.108,574.095,570.094,0.0
56468.0,STARLINK-5998,PAYLOAD,2024-02-21 14:23:00,14.98328066,0.0003412,69.9977,227.9479,273.5734,86.5035,-0.0001039,-1.333e-05,0.0,0 STARLINK-5998,1 56468U 23064W   24052.59931237 -.00001333  00000-0 -10390-3 0  9994,2 56468  69.9977 227.9479 0003412 273.5734  86.5035 14.98328066 43347,6950.199,96.107,574.435,569.692,0.0
